ONEWEB-0235             
1 48771U 21045E   25351.35128163 -.00000026  00000+0 -10181-3 0  9997
2 48771  87.8999 295.4675 0002150  67.0298 293.1059 13.15549652220472
ONEWEB-0242             
1 48772U 21045F   25351.57311857 -.00000128  00000+0 -37373-3 0  9991
2 48772  87.9007 295.4169 0002016  76.5197 283.6158 13.15549535220548
ONEWEB-0241             
1 48773U 21045G   25351.56043129 -.00000010  00000+0 -59730-4 0  9997
2 48773  87.8997 295.4568 0001854  64.8111 295.3212 13.15545821220459
ONEWEB-0243             
1 48774U 21045H   25351.59213410  .00000063  00000+0  13217-3 0  9998
2 48774  87.9001 295.4599 0002216  72.7994 287.3379 13.15549430220489
ONEWEB-0222             
1 48775U 21045J   25351.34732345 -.00000148  00000+0 -42653-3 0  9997
2 48775  87.9004 295.4622 0001909  72.9745 287.1595 13.15548285220490
ONEWEB-0244             
1 48776U 21045K   25351.60163923  .00000115  00000+0  27138-3 0  9990
2 48776  87.9012 295.3993 0001946  74.5881 285.5464 13.15550043221099
ONEWEB-0247             
1 48777U 21045L   25351.37030365  .00000103  00000+0  23877-3 0  9991
2 48777  87.8989 295.5012 0002675  65.1927 294.9482 13.15549799220508
ONEWEB-0245             
1 48778U 21045M   25351.59372165  .00000054  00000+0  10899-3 0  9998
2 48778  87.8994 295.4211 0001728  70.5564 289.5753 13.15548783220503
